OBJECT_NAME,OBJECT_ID,EPOCH,MEAN_MOTION,ECCENTRICITY,INCLINATION,RA_OF_ASC_NODE,ARG_OF_PERICENTER,MEAN_ANOMALY,EPHEMERIS_TYPE,CLASSIFICATION_TYPE,NORAD_CAT_ID,ELEMENT_SET_NO,REV_AT_EPOCH,BSTAR,MEAN_MOTION_DOT,MEAN_MOTION_DDOT
DMSP 5D-3 F16 (USA 172),2003-048A,2026-07-17T07:09:14.353920,14.14484765,.00080619,98.9897,222.3246,65.9650,353.8516,0,U,28054,999,17374,-.338485E-5,-.52E-6,0
METEOSAT-9 (MSG-2),2005-049B,2026-07-17T04:56:11.926176,1.00273115,.0002295,9.4277,53.8679,356.6665,4.2059,0,U,28912,999,730,0,.111E-5,0
DMSP 5D-3 F17 (USA 191),2006-050A,2026-07-17T07:01:26.005440,14.14996166,.00096133,98.7388,204.2478,336.7027,23.3709,0,U,29522,999,1668,.1290178E-5,-.41E-6,0
FENGYUN 3A,2008-026A,2026-07-17T06:49:58.095552,14.19576723,.00095992,98.6886,138.5558,46.5170,313.6803,0,U,32958,999,93967,.30476922E-4,.21E-6,0
EWS-G3 (GOES 14),2009-033A,2026-07-17T07:01:06.955968,1.00097156,.00019912,1.7655,82.6670,39.6603,41.8214,0,U,35491,999,689,0,-.37E-5,0
DMSP 5D-3 F18 (USA 210),2009-057A,2026-07-17T06:22:56.183520,14.14912556,.00113518,98.9058,178.9727,159.7307,200.4319,0,U,35951,999,86384,.11007506E-3,.168E-5,0
EWS-G2 (GOES 15),2010-008A,2026-07-17T04:39:38.704608,1.00268766,.00053056,1.3585,82.4353,53.9954,291.7823,0,U,36411,999,5993,0,.12E-6,0
COMS 1,2010-032A,2026-07-17T02:47:27.434400,0.99167487,.00112692,4.8803,74.9950,15.0331,201.2004,0,U,36744,999,5138,0,-.244E-5,0
FENGYUN 3B,2010-059A,2026-07-17T06:57:25.174080,14.14846498,.00231792,98.9601,244.4297,100.8677,327.6702,0,U,37214,999,81168,-.3672154E-5,-.52E-6,0
SUOMI NPP,2011-061A,2026-07-17T05:26:16.169856,14.19522792,.00008401,98.7955,138.8985,203.1288,156.9850,0,U,37849,999,76270,.31205967E-4,.21E-6,0
METEOSAT-10 (MSG-3),2012-035B,2026-07-17T06:25:47.842176,1.00271422,.00012438,4.7413,60.8717,16.7453,313.9620,0,U,38552,999,5115,0,-.19E-6,0
METOP-B,2012-049A,2026-07-17T05:54:58.516704,14.21446743,.00011503,98.6489,249.1436,243.7587,116.3472,0,U,38771,999,71753,.38061403E-4,.4E-6,0
INSAT-3D,2013-038B,2026-07-17T07:02:44.300256,1.00267729,.00005516,2.0020,82.1586,73.1573,14.9529,0,U,39216,999,4738,0,-.35E-5,0
FENGYUN 3C,2013-052A,2026-07-17T07:00:28.912320,14.15761027,.00135881,98.5000,170.7879,299.4571,60.5248,0,U,39260,999,66282,.22632857E-4,.3E-7,0
METEOR-M 2,2014-037A,2026-07-17T06:32:19.025952,14.21470458,.00050502,98.5132,172.9488,320.3260,39.7548,0,U,40069,999,62359,.1721006E-3,.334E-5,0
HIMAWARI-8,2014-060A,2026-07-17T07:05:51.501408,1.00270919,.00011495,0.0173,29.0357,137.0277,16.1819,0,U,40267,999,4306,0,-.286E-5,0
FENGYUN 2G,2014-090A,2026-07-17T01:46:13.605312,1.00280117,.00041905,5.7125,72.4526,173.4964,174.8761,0,U,40367,999,4229,0,-.314E-5,0
METEOSAT-11 (MSG-4),2015-034A,2026-07-17T06:28:25.090176,1.00272508,.00021182,3.2739,70.9170,354.6732,335.8575,0,U,40732,999,751,0,.5E-6,0
ELEKTRO-L 2,2015-074A,2026-07-16T23:39:38.723040,1.00272041,.00009711,6.7670,70.1538,215.6751,349.3918,0,U,41105,999,3880,0,-.13E-5,0
SENTINEL-3A,2016-011A,2026-07-17T07:15:15.967296,14.26740128,.00013416,98.6236,265.2512,89.4511,270.6824,0,U,41335,999,54235,.35385881E-4,.42E-6,0
INSAT-3DR,2016-054A,2026-07-17T03:48:38.629152,1.00270914,.00104997,0.0749,88.8410,181.0134,156.2765,0,U,41752,999,3611,0,-.87E-6,0
HIMAWARI-9,2016-064A,2026-07-16T20:49:54.488064,1.00270933,.00017564,0.0313,261.7094,265.1821,221.0025,0,U,41836,999,3550,0,-.286E-5,0
GOES 16,2016-071A,2026-07-17T05:55:58.200960,1.00271190,.00005686,0.4093,85.4586,87.3993,106.5031,0,U,41866,999,3540,0,-.101E-5,0
FENGYUN 4A,2016-077A,2026-07-17T07:00:59.466816,1.00267042,.00084609,2.3972,79.9372,159.7505,284.3877,0,U,41882,999,3523,0,-.368E-5,0
CYGFM05,2016-078A,2026-07-17T01:14:58.320960,15.57913672,.00056174,34.9568,62.6339,56.6119,303.5143,0,U,41884,999,53341,.20854833E-3,.16094E-3,0
CYGFM04,2016-078B,2026-07-16T22:13:35.278464,15.63154078,.00040977,34.9327,29.6054,105.3496,254.7683,0,U,41885,999,53365,.22614095E-3,.21379E-3,0
CYGFM02,2016-078C,2026-07-16T22:20:20.170464,15.66451663,.00048708,34.9409,23.1954,108.2529,251.8729,0,U,41886,999,53383,.24655976E-3,.26622E-3,0
CYGFM01,2016-078D,2026-07-17T00:39:21.130560,15.58633048,.00056054,34.9398,63.6066,48.8240,311.2968,0,U,41887,999,53336,.20858615E-3,.16544E-3,0
CYGFM08,2016-078E,2026-07-17T06:04:42.281760,15.61536497,.00060054,34.9433,40.8590,91.8421,268.2993,0,U,41888,999,53367,.21139024E-3,.18756E-3,0
CYGFM07,2016-078G,2026-07-16T22:54:48.916512,15.61635317,.00045261,34.9450,31.1656,105.8002,254.3223,0,U,41890,999,53365,.22950162E-3,.20443E-3,0
CYGFM03,2016-078H,2026-07-16T22:13:21.686880,15.61619716,.00043471,34.9405,33.2870,86.5901,273.5322,0,U,41891,999,53362,.22694529E-3,.20201E-3,0
