DMSP 5D-3 F16 (USA 172) 
1 28054U 03048A   26198.29808280 -.00000052  00000+0 -33848-5 0  9996
2 28054  98.9897 222.3246 0008061  65.9650 353.8516 14.14484765173745
METEOSAT-9 (MSG-2)      
1 28912U 05049B   26198.20569359  .00000111  00000+0  00000+0 0  9996
2 28912   9.4277  53.8679 0002295 356.6665   4.2059  1.00273115  7306
DMSP 5D-3 F17 (USA 191) 
1 29522U 06050A   26198.29266210 -.00000041  00000+0  12902-5 0  9999
2 29522  98.7388 204.2478 0009613 336.7027  23.3709 14.14996166 16681
FENGYUN 3A              
1 32958U 08026A   26198.28470018  .00000021  00000+0  30477-4 0  9996
2 32958  98.6886 138.5558 0009599  46.5170 313.6803 14.19576723939677
EWS-G3 (GOES 14)        
1 35491U 09033A   26198.29244162 -.00000370  00000+0  00000+0 0  9992
2 35491   1.7655  82.6670 0001991  39.6603  41.8214  1.00097156  6896
DMSP 5D-3 F18 (USA 210) 
1 35951U 09057A   26198.26592805  .00000168  00000+0  11008-3 0  9994
2 35951  98.9058 178.9727 0011351 159.7307 200.4319 14.14912556863844
EWS-G2 (GOES 15)        
1 36411U 10008A   26198.19419797  .00000012  00000+0  00000+0 0  9998
2 36411   1.3585  82.4353 0005305  53.9954 291.7823  1.00268766 59936
COMS 1                  
1 36744U 10032A   26198.11628975 -.00000244  00000+0  00000+0 0  9994
2 36744   4.8803  74.9950 0011269  15.0331 201.2004  0.99167487 51382
FENGYUN 3B              
1 37214U 10059A   26198.28987470 -.00000052  00000+0 -36722-5 0  9996
2 37214  98.9601 244.4297 0023179 100.8677 327.6702 14.14846498811685
SUOMI NPP               
1 37849U 11061A   26198.22657604  .00000021  00000+0  31206-4 0  9996
2 37849  98.7955 138.8985 0000840 203.1288 156.9850 14.19522792762702
METEOSAT-10 (MSG-3)     
1 38552U 12035B   26198.26791484 -.00000019  00000+0  00000+0 0  9990
2 38552   4.7413  60.8717 0001243  16.7453 313.9620  1.00271422 51154
METOP-B                 
1 38771U 12049A   26198.24651061  .00000040  00000+0  38061-4 0  9998
2 38771  98.6489 249.1436 0001150 243.7587 116.3472 14.21446743717537
INSAT-3D                
1 39216U 13038B   26198.29356829 -.00000350  00000+0  00000+0 0  9993
2 39216   2.0020  82.1586 0000551  73.1573  14.9529  1.00267729 47380
FENGYUN 3C              
1 39260U 13052A   26198.29200130  .00000003  00000+0  22633-4 0  9996
2 39260  98.5000 170.7879 0013588 299.4571  60.5248 14.15761027662828
METEOR-M 2              
1 40069U 14037A   26198.27244243  .00000334  00000+0  17210-3 0  9991
2 40069  98.5132 172.9488 0005050 320.3260  39.7548 14.21470458623591
HIMAWARI-8              
1 40267U 14060A   26198.29573497 -.00000286  00000+0  00000+0 0  9997
2 40267   0.0173  29.0357 0001149 137.0277  16.1819  1.00270919 43068
FENGYUN 2G              
1 40367U 14090A   26198.07376858 -.00000314  00000+0  00000+0 0  9991
2 40367   5.7125  72.4526 0004190 173.4964 174.8761  1.00280117 42297
METEOSAT-11 (MSG-4)     
1 40732U 15034A   26198.26973484  .00000050  00000+0  00000+0 0  9991
2 40732   3.2739  70.9170 0002118 354.6732 335.8575  1.00272508  7512
ELEKTRO-L 2             
1 41105U 15074A   26197.98586485 -.00000130  00000+0  00000+0 0  9999
2 41105   6.7670  70.1538 0000971 215.6751 349.3918  1.00272041 38800
SENTINEL-3A             
1 41335U 16011A   26198.30226814  .00000042  00000+0  35386-4 0  9991
2 41335  98.6236 265.2512 0001341  89.4511 270.6824 14.26740128542355
INSAT-3DR               
1 41752U 16054A   26198.15878043 -.00000087  00000+0  00000+0 0  9991
2 41752   0.0749  88.8410 0010499 181.0134 156.2765  1.00270914 36118
HIMAWARI-9              
1 41836U 16064A   26197.86799176 -.00000286  00000+0  00000+0 0  9992
2 41836   0.0313 261.7094 0001756 265.1821 221.0025  1.00270933 35504
GOES 16                 
1 41866U 16071A   26198.24720140 -.00000101  00000+0  00000+0 0  9997
2 41866   0.4093  85.4586 0000568  87.3993 106.5031  1.00271190 35406
FENGYUN 4A              
1 41882U 16077A   26198.29235494 -.00000368  00000+0  00000+0 0  9994
2 41882   2.3972  79.9372 0008460 159.7505 284.3877  1.00267042 35239
CYGFM05                 
1 41884U 16078A   26198.05206390  .00016094  00000+0  20855-3 0  9990
2 41884  34.9568  62.6339 0005617  56.6119 303.5143 15.57913672533419
CYGFM04                 
1 41885U 16078B   26197.92610276  .00021379  00000+0  22614-3 0  9995
2 41885  34.9327  29.6054 0004097 105.3496 254.7683 15.63154078533657
CYGFM02                 
1 41886U 16078C   26197.93078901  .00026622  00000+0  24656-3 0  9994
2 41886  34.9409  23.1954 0004870 108.2529 251.8729 15.66451663533837
CYGFM01                 
1 41887U 16078D   26198.02732790  .00016544  00000+0  20859-3 0  9992
2 41887  34.9398  63.6066 0005605  48.8240 311.2968 15.58633048533368
CYGFM08                 
1 41888U 16078E   26198.25326715  .00018756  00000+0  21139-3 0  9993
2 41888  34.9433  40.8590 0006005  91.8421 268.2993 15.61536497533679
CYGFM07                 
1 41890U 16078G   26197.95473283  .00020443  00000+0  22950-3 0  9993
2 41890  34.9450  31.1656 0004526 105.8002 254.3223 15.61635317533655
CYGFM03                 
1 41891U 16078H   26197.92594545  .00020201  00000+0  22695-3 0  9994
2 41891  34.9405  33.2870 0004347  86.5901 273.5322 15.61619716533626
